NORAD_CAT_ID,OBJECT_NAME,OBJECT_TYPE,EPOCH,MEAN_MOTION,ECCENTRICITY,INCLINATION,RA_OF_ASC_NODE,ARG_OF_PERICENTER,MEAN_ANOMALY,BSTAR,MEAN_MOTION_DOT,MEAN_MOTION_DDOT,TLE_LINE0,TLE_LINE1,TLE_LINE2,SEMIMAJOR_AXIS,PERIOD,APOGEE,PERIGEE,DECAYED
49173.0,STARLINK-3045,PAYLOAD,2023-04-24 05:17:35,14.98347124,0.0002726,70.0009,43.0551,271.7742,88.3105,9.337e-06,1.8e-07,0.0,0 STARLINK-3045,1 49173U 21082AV  23114.22054954  .00000018  00000-0  93370-5 0  9995,2 49173  70.0009  43.0551 0002726 271.7742  88.3105 14.98347124 89125,6950.14,96.106,573.9,570.11,0.0
49173.0,STARLINK-3045,PAYLOAD,2023-04-25 05:19:35,14.98349744,0.0002927,70.001,40.531,269.0569,91.0255,0.00017228,1.964e-05,0.0,0 STARLINK-3045,1 49173U 21082AV  23115.22193349  .00001964  00000-0  17228-3 0  9995,2 49173  70.0010  40.5310 0002927 269.0569  91.0255 14.98349744 89275,6950.132,96.106,574.031,569.963,0.0
49173.0,STARLINK-3045,PAYLOAD,2023-04-26 05:21:40,14.9829995,0.0003035,70.0011,38.0065,261.3395,98.742,-0.00043747,-5.305e-05,0.0,0 STARLINK-3045,1 49173U 21082AV  23116.22339023 -.00005305  00000-0 -43747-3 0  9997,2 49173  70.0011  38.0065 0003035 261.3395  98.7420 14.98299950 89426,6950.286,96.109,574.26,570.041,0.0
49173.0,STARLINK-3045,PAYLOAD,2023-04-26 18:10:43,14.98329078,0.0003159,70.0005,36.6601,271.6216,88.4581,-0.00018384,-2.286e-05,0.0,0 STARLINK-3045,1 49173U 21082AV  23116.75744753 -.00002286  00000-0 -18384-3 0  9999,2 49173  70.0005  36.6601 0003159 271.6216  88.4581 14.98329078 89500,6950.196,96.107,574.256,569.865,0.0
49173.0,STARLINK-3045,PAYLOAD,2023-04-27 03:47:30,14.98344787,0.0003062,70.0005,35.6502,271.1497,88.9312,1.9053e-05,1.34e-06,0.0,0 STARLINK-3045,1 49173U 21082AV  23117.15799213  .00000134  00000-0  19053-4 0  9998,2 49173  70.0005  35.6502 0003062 271.1497  88.9312 14.98344787 89565,6950.147,96.106,574.14,569.884,0.0
49173.0,STARLINK-3045,PAYLOAD,2023-04-27 18:12:43,14.98319854,0.0002832,70.0025,34.1346,280.1965,79.8875,0.00053693,6.318e-05,0.0,0 STARLINK-3045,1 49173U 21082AV  23117.75883906  .00006318  00000-0  53693-3 0  9994,2 49173  70.0025  34.1346 0002832 280.1965  79.8875 14.98319854 89651,6950.224,96.108,574.058,570.121,0.0
49173.0,STARLINK-3045,PAYLOAD,2023-04-28 11:50:13,14.98316225,0.0002684,70.0037,32.2867,288.4445,71.6422,0.00039907,4.67e-05,0.0,0 STARLINK-3045,1 49173U 21082AV  23118.49320784  .00004670  00000-0  39907-3 0  9997,2 49173  70.0037  32.2867 0002684 288.4445  71.6422 14.98316225 89769,6950.235,96.108,573.966,570.235,0.0
49173.0,STARLINK-3045,PAYLOAD,2023-04-28 18:14:45,14.98339752,0.0002653,70.0017,31.6105,272.6631,87.4224,-8.3641e-05,-1.091e-05,0.0,0 STARLINK-3045,1 49173U 21082AV  23118.76024463 -.00001091  00000-0 -83641-4 0  9993,2 49173  70.0017  31.6105 0002653 272.6631  87.4224 14.98339752 89803,6950.163,96.106,573.872,570.184,0.0
49173.0,STARLINK-3045,PAYLOAD,2023-04-29 03:51:33,14.98335659,0.0002907,70.0013,30.6003,270.1868,89.8958,-0.00011934,-1.517e-05,0.0,0 STARLINK-3045,1 49173U 21082AV  23119.16080510 -.00001517  00000-0 -11934-3 0  9991,2 49173  70.0013  30.6003 0002907 270.1868  89.8958 14.98335659 89860,6950.175,96.107,574.061,570.02,0.0
49173.0,STARLINK-3045,PAYLOAD,2023-04-29 18:16:45,14.98338643,0.0002882,70.001,29.0856,269.0468,91.0361,-0.00011447,-1.459e-05,0.0,0 STARLINK-3045,1 49173U 21082AV  23119.76164024 -.00001459  00000-0 -11447-3 0  9994,2 49173  70.0010  29.0856 0002882 269.0468  91.0361 14.98338643 89959,6950.166,96.106,574.034,570.028,0.0
49173.0,STARLINK-3045,PAYLOAD,2023-04-30 03:53:33,14.98340597,0.000283,70.001,28.0752,268.1642,91.9193,-6.1171e-05,-8.23e-06,0.0,0 STARLINK-3045,1 49173U 21082AV  23120.16219549 -.00000823  00000-0 -61171-4 0  9997,2 49173  70.0010  28.0752 0002830 268.1642  91.9193 14.98340597 90012,6950.16,96.106,573.992,570.058,0.0
49173.0,STARLINK-3045,PAYLOAD,2023-04-30 19:54:54,14.98325355,0.0002746,70.0009,26.3923,267.9916,92.0929,6.1174e-05,6.37e-06,0.0,0 STARLINK-3045,1 49173U 21082AV  23120.82980158  .00000637  00000-0  61174-4 0  9995,2 49173  70.0009  26.3923 0002746 267.9916  92.0929 14.98325355 90113,6950.207,96.107,573.981,570.164,0.0
49173.0,STARLINK-3045,PAYLOAD,2023-05-01 03:55:35,14.98328869,0.0002739,70.0009,25.5509,267.9572,92.1273,6.8356e-05,7.23e-06,0.0,0 STARLINK-3045,1 49173U 21082AV  23121.16359996  .00000723  00000-0  68356-4 0  9998,2 49173  70.0009  25.5509 0002739 267.9572  92.1273 14.98328869 90165,6950.196,96.107,573.965,570.158,0.0
49173.0,STARLINK-3045,PAYLOAD,2023-05-01 19:56:55,14.98333556,0.0002667,70.0009,23.8678,271.3168,88.7686,4.6813e-05,4.66e-06,0.0,0 STARLINK-3045,1 49173U 21082AV  23121.83119795  .00000466  00000-0  46813-4 0  9991,2 49173  70.0009  23.8678 0002667 271.3168  88.7686 14.98333556 90262,6950.182,96.107,573.901,570.193,0.0
49173.0,STARLINK-3045,PAYLOAD,2023-05-01 21:33:03,14.98333407,0.0002676,70.001,23.6995,271.1221,88.9631,4.3307e-05,4.24e-06,0.0,0 STARLINK-3045,1 49173U 21082AV  23121.89795799  .00000424  00000-0  43307-4 0  9990,2 49173  70.0010  23.6995 0002676 271.1221  88.9631 14.98333407 90270,6950.182,96.107,573.907,570.187,0.0
49173.0,STARLINK-3045,PAYLOAD,2023-05-02 03:57:35,14.98336625,0.000264,70.0011,23.026,270.5008,89.5849,7.6013e-05,8.14e-06,0.0,0 STARLINK-3045,1 49173U 21082AV  23122.16499456  .00000814  00000-0  76013-4 0  9995,2 49173  70.0011  23.0260 0002640 270.5008  89.5849 14.98336625 90315,6950.172,96.107,573.872,570.203,0.0
49173.0,STARLINK-3045,PAYLOAD,2023-05-02 21:35:04,14.98330753,0.0002593,70.0012,21.175,257.9654,102.1214,6.1725e-05,6.44e-06,0.0,0 STARLINK-3045,1 49173U 21082AV  23122.89935669  .00000644  00000-0  61725-4 0  9991,2 49173  70.0012  21.1750 0002593 257.9654 102.1214 14.98330753 90428,6950.191,96.107,573.858,570.253,0.0
49173.0,STARLINK-3045,PAYLOAD,2023-05-03 02:23:28,14.98330791,0.0002591,70.0011,20.6696,263.1786,96.9078,5.5176e-05,5.65e-06,0.0,0 STARLINK-3045,1 49173U 21082AV  23123.09963703  .00000565  00000-0  55176-4 0  9999,2 49173  70.0011  20.6696 0002591 263.1786  96.9078 14.98330791 90456,6950.19,96.107,573.856,570.255,0.0
49173.0,STARLINK-3045,PAYLOAD,2023-05-03 10:24:09,14.983307,0.0002781,70.0008,19.8291,267.731,92.3531,1.8583e-05,1.29e-06,0.0,0 STARLINK-3045,1 49173U 21082AV  23123.43343785  .00000129  00000-0  18583-4 0  9996,2 49173  70.0008  19.8291 0002781 267.7310  92.3531 14.98330700 90507,6950.191,96.107,573.989,570.123,0.0
49173.0,STARLINK-3045,PAYLOAD,2023-05-03 21:37:05,14.98327095,0.0002939,70.001,18.6518,274.0629,86.0194,-3.0116e-05,-4.52e-06,0.0,0 STARLINK-3045,1 49173U 21082AV  23123.90076190 -.00000452  00000-0 -30116-4 0  9998,2 49173  70.0010  18.6518 0002939 274.0629  86.0194 14.98327095 90573,6950.202,96.107,574.11,570.024,0.0
49173.0,STARLINK-3045,PAYLOAD,2023-05-04 10:26:09,14.9833267,0.0002904,70.0001,17.303,268.8054,91.2772,-5.0789e-05,-6.99e-06,0.0,0 STARLINK-3045,1 49173U 21082AV  23124.43483774 -.00000699  00000-0 -50789-4 0  9998,2 49173  70.0001  17.3030 0002904 268.8054  91.2772 14.98332670 90657,6950.185,96.107,574.068,570.031,0.0
49173.0,STARLINK-3045,PAYLOAD,2023-05-04 21:39:06,14.98329859,0.0002948,70.0,16.1248,269.5175,90.5646,3.2843e-05,2.99e-06,0.0,0 STARLINK-3045,1 49173U 21082AV  23124.90215802  .00000299  00000-0  32843-4 0  9990,2 49173  70.0000  16.1248 0002948 269.5175  90.5646 14.98329859 90729,6950.193,96.107,574.107,570.009,0.0
49173.0,STARLINK-3045,PAYLOAD,2023-05-05 20:04:59,14.98325766,0.0002872,70.0,13.7684,271.1761,88.9069,6.3028e-05,6.59e-06,0.0,0 STARLINK-3045,1 49173U 21082AV  23125.83679981  .00000659  00000-0  63028-4 0  9994,2 49173  70.0000  13.7684 0002872 271.1761  88.9069 14.98325766 90860,6950.206,96.107,574.067,570.075,0.0
49173.0,STARLINK-3045,PAYLOAD,2023-05-06 02:29:31,14.98331073,0.0002868,70.0,13.0941,269.3544,90.7286,6.8672e-05,7.27e-06,0.0,0 STARLINK-3045,1 49173U 21082AV  23126.10383696  .00000727  00000-0  68672-4 0  9996,2 49173  70.0000  13.0941 0002868 269.3544  90.7286 14.98331073 90907,6950.19,96.107,574.048,570.061,0.0
49173.0,STARLINK-3045,PAYLOAD,2023-05-07 02:31:31,14.98339872,0.0002803,70.0004,10.5704,266.2361,93.8478,8.7623e-05,9.53e-06,0.0,0 STARLINK-3045,1 49173U 21082AV  23127.10522834  .00000953  00000-0  87623-4 0  9994,2 49173  70.0004  10.5704 0002803 266.2361  93.8478 14.98339872 91051,6950.162,96.106,573.975,570.079,0.0
49173.0,STARLINK-3045,PAYLOAD,2023-05-07 20:09:01,14.98322334,0.0002626,70.0008,8.7192,265.0605,95.0255,-4.4675e-05,-6.26e-06,0.0,0 STARLINK-3045,1 49173U 21082AV  23127.83960330 -.00000626  00000-0 -44675-4 0  9990,2 49173  70.0008   8.7192 0002626 265.0605  95.0255 14.98322334 91160,6950.217,96.107,573.907,570.256,0.0
49173.0,STARLINK-3045,PAYLOAD,2023-05-07 21:45:09,14.98321927,0.0002632,70.0008,8.5509,265.1457,94.9401,-4.9403e-05,-6.82e-06,0.0,0 STARLINK-3045,1 49173U 21082AV  23127.90636393 -.00000682  00000-0 -49403-4 0  9993,2 49173  70.0008   8.5509 0002632 265.1457  94.9401 14.98321927 91172,6950.218,96.108,573.912,570.254,0.0
49173.0,STARLINK-3045,PAYLOAD,2023-05-08 08:58:05,14.98328193,0.0002657,70.0009,7.3726,266.3167,93.7688,7.4815e-06,-4e-08,0.0,0 STARLINK-3045,1 49173U 21082AV  23128.37368011 -.00000004  00000-0  74815-5 0  9997,2 49173  70.0009   7.3726 0002657 266.3167  93.7688 14.98328193 91243,6950.198,96.107,573.91,570.217,0.0
49173.0,STARLINK-3045,PAYLOAD,2023-05-08 20:11:01,14.98339145,0.0002867,70.0002,6.193,270.4024,89.6806,3.7104e-05,3.5e-06,0.0,0 STARLINK-3045,1 49173U 21082AV  23128.84099090  .00000350  00000-0  37104-4 0  9999,2 49173  70.0002   6.1930 0002867 270.4024  89.6806 14.98339145 91314,6950.165,96.106,574.022,570.037,0.0
49173.0,STARLINK-3045,PAYLOAD,2023-05-08 21:47:09,14.98339389,0.0002863,70.0002,6.0247,270.362,89.7211,4.0675e-05,3.92e-06,0.0,0 STARLINK-3045,1 49173U 21082AV  23128.90775035  .00000392  00000-0  40675-4 0  9999,2 49173  70.0002   6.0247 0002863 270.3620  89.7211 14.98339389 91323,6950.164,96.106,574.019,570.039,0.0
